{
  "type": "FeatureCollection",
  "features": [
    {
      "type": "Feature",
      "properties": {
        "norad_id": 35771,
        "name": "COSMOS 2251 DEB",
        "group": "cosmos-2251-debris",
        "lat": -52.426795858021855,
        "lon": -85.32733633949778,
        "alt_km": 799.434428401888,
        "timestamp": "2025-12-20T16:47:36.681344+00:00",
        "meta_object_name": "COSMOS 2251 DEB",
        "meta_object_id": "1993-036ARR",
        "meta_epoch": "2025-12-15T14:45:16.238592",
        "meta_mean_motion": 14.13430046,
        "meta_eccentricity": 0.02280549,
        "meta_inclination": 74.1561,
        "meta_ra_of_asc_node": 305.27,
        "meta_arg_of_pericenter": 242.9998,
        "meta_mean_anomaly": 114.7698,
        "meta_ephemeris_type": 0,
        "meta_classification_type": "U",
        "meta_norad_cat_id": 35771,
        "meta_element_set_no": 999,
        "meta_rev_at_epoch": 82901,
        "meta_bstar": 0.0026764238,
        "meta_mean_motion_dot": 6.427e-05,
        "meta_mean_motion_ddot": 0,
        "tle_line1": "1 35771U 93036ARR 25349.61477128  .00006427  00000+0  26764-2 0  9998",
        "tle_line2": "2 35771  74.1561 305.2700 0228054 242.9998 114.7698 14.13430046829012"
      },
      "geometry": {
        "type": "Point",
        "coordinates": [
          -85.32733633949778,
          -52.426795858021855
        ]
      }
    },
    {
      "type": "Feature",
      "properties": {
        "norad_id": 35773,
        "name": "COSMOS 2251 DEB",
        "group": "cosmos-2251-debris",
        "lat": 48.51876969629597,
        "lon": 126.62512842413128,
        "alt_km": 649.8294232058852,
        "timestamp": "2025-12-20T16:47:36.681354+00:00",
        "meta_object_name": "COSMOS 2251 DEB",
        "meta_object_id": "1993-036ART",
        "meta_epoch": "2025-12-20T07:59:54.023424",
        "meta_mean_motion": 14.62106943,
        "meta_eccentricity": 0.0045259,
        "meta_inclination": 74.0079,
        "meta_ra_of_asc_node": 326.2549,
        "meta_arg_of_pericenter": 124.0691,
        "meta_mean_anomaly": 236.4785,
        "meta_ephemeris_type": 0,
        "meta_classification_type": "U",
        "meta_norad_cat_id": 35773,
        "meta_element_set_no": 999,
        "meta_rev_at_epoch": 86950,
        "meta_bstar": 0.00039638,
        "meta_mean_motion_dot": 1.991e-05,
        "meta_mean_motion_ddot": 0,
        "tle_line1": "1 35773U 93036ART 25354.33326416  .00001991  00000+0  39638-3 0  9994",
        "tle_line2": "2 35773  74.0079 326.2549 0045259 124.0691 236.4785 14.62106943869502"
      },
      "geometry": {
        "type": "Point",
        "coordinates": [
          126.62512842413128,
          48.51876969629597
        ]
      }
    },
    {
      "type": "Feature",
      "properties": {
        "norad_id": 35777,
        "name": "COSMOS 2251 DEB",
        "group": "cosmos-2251-debris",
        "lat": 64.31834171622523,
        "lon": -12.699033859387544,
        "alt_km": 1323.8052808148059,
        "timestamp": "2025-12-20T16:47:36.681364+00:00",
        "meta_object_name": "COSMOS 2251 DEB",
        "meta_object_id": "1993-036ARX",
        "meta_epoch": "2025-12-18T07:54:51.389280",
        "meta_mean_motion": 13.41305779,
        "meta_eccentricity": 0.04520138,
        "meta_inclination": 73.7704,
        "meta_ra_of_asc_node": 313.8075,
        "meta_arg_of_pericenter": 207.8246,
        "meta_mean_anomaly": 306.1255,
        "meta_ephemeris_type": 0,
        "meta_classification_type": "U",
        "meta_norad_cat_id": 35777,
        "meta_element_set_no": 999,
        "meta_rev_at_epoch": 79759,
        "meta_bstar": 0.00020170503,
        "meta_mean_motion_dot": 1.82e-06,
        "meta_mean_motion_ddot": 0,
        "tle_line1": "1 35777U 93036ARX 25352.32976145  .00000182  00000+0  20171-3 0  9998",
        "tle_line2": "2 35777  73.7704 313.8075 0452013 207.8246 306.1255 13.41305779797599"
      },
      "geometry": {
        "type": "Point",
        "coordinates": [
          -12.699033859387544,
          64.31834171622523
        ]
      }
    },
    {
      "type": "Feature",
      "properties": {
        "norad_id": 35784,
        "name": "COSMOS 2251 DEB",
        "group": "cosmos-2251-debris",
        "lat": 19.654061997317744,
        "lon": -111.10161313806252,
        "alt_km": 704.1635218799383,
        "timestamp": "2025-12-20T16:47:36.681374+00:00",
        "meta_object_name": "COSMOS 2251 DEB",
        "meta_object_id": "1993-036ASE",
        "meta_epoch": "2025-12-17T23:28:57.859680",
        "meta_mean_motion": 14.50055355,
        "meta_eccentricity": 0.00415956,
        "meta_inclination": 74.0403,
        "meta_ra_of_asc_node": 79.8718,
        "meta_arg_of_pericenter": 209.9484,
        "meta_mean_anomaly": 149.9297,
        "meta_ephemeris_type": 0,
        "meta_classification_type": "U",
        "meta_norad_cat_id": 35784,
        "meta_element_set_no": 999,
        "meta_rev_at_epoch": 65782,
        "meta_bstar": 0.00024795111,
        "meta_mean_motion_dot": 9.44e-06,
        "meta_mean_motion_ddot": 0,
        "tle_line1": "1 35784U 93036ASE 25351.97844745  .00000944  00000+0  24795-3 0  9998",
        "tle_line2": "2 35784  74.0403  79.8718 0041595 209.9484 149.9297 14.50055355657829"
      },
      "geometry": {
        "type": "Point",
        "coordinates": [
          -111.10161313806252,
          19.654061997317744
        ]
      }
    },
    {
      "type": "Feature",
      "properties": {
        "norad_id": 35786,
        "name": "COSMOS 2251 DEB",
        "group": "cosmos-2251-debris",
        "lat": -2.689242273706327,
        "lon": -150.82142907126985,
        "alt_km": 654.7388356818474,
        "timestamp": "2025-12-20T16:47:36.681384+00:00",
        "meta_object_name": "COSMOS 2251 DEB",
        "meta_object_id": "1993-036ASG",
        "meta_epoch": "2025-12-19T18:40:39.541152",
        "meta_mean_motion": 14.66292121,
        "meta_eccentricity": 0.00334702,
        "meta_inclination": 74.0141,
        "meta_ra_of_asc_node": 30.1848,
        "meta_arg_of_pericenter": 158.321,
        "meta_mean_anomaly": 201.9385,
        "meta_ephemeris_type": 0,
        "meta_classification_type": "U",
        "meta_norad_cat_id": 35786,
        "meta_element_set_no": 999,
        "meta_rev_at_epoch": 73511,
        "meta_bstar": 0.00056402109,
        "meta_mean_motion_dot": 3.106e-05,
        "meta_mean_motion_ddot": 0,
        "tle_line1": "1 35786U 93036ASG 25353.77823543  .00003106  00000+0  56402-3 0  9996",
        "tle_line2": "2 35786  74.0141  30.1848 0033470 158.3210 201.9385 14.66292121735118"
      },
      "geometry": {
        "type": "Point",
        "coordinates": [
          -150.82142907126985,
          -2.689242273706327
        ]
      }
    },
    {
      "type": "Feature",
      "properties": {
        "norad_id": 35789,
        "name": "COSMOS 2251 DEB",
        "group": "cosmos-2251-debris",
        "lat": 74.00410626871727,
        "lon": -3.523403995766244,
        "alt_km": 759.3741295286873,
        "timestamp": "2025-12-20T16:47:36.681394+00:00",
        "meta_object_name": "COSMOS 2251 DEB",
        "meta_object_id": "1993-036ASK",
        "meta_epoch": "2025-12-20T11:22:01.638048",
        "meta_mean_motion": 14.35991601,
        "meta_eccentricity": 0.0047676,
        "meta_inclination": 74.0388,
        "meta_ra_of_asc_node": 270.1736,
        "meta_arg_of_pericenter": 7.6909,
        "meta_mean_anomaly": 352.4963,
        "meta_ephemeris_type": 0,
        "meta_classification_type": "U",
        "meta_norad_cat_id": 35789,
        "meta_element_set_no": 999,
        "meta_rev_at_epoch": 61338,
        "meta_bstar": 9.6298e-05,
        "meta_mean_motion_dot": 2.57e-06,
        "meta_mean_motion_ddot": 0,
        "tle_line1": "1 35789U 93036ASK 25354.47363007  .00000257  00000+0  96298-4 0  9993",
        "tle_line2": "2 35789  74.0388 270.1736 0047676   7.6909 352.4963 14.35991601613383"
      },
      "geometry": {
        "type": "Point",
        "coordinates": [
          -3.523403995766244,
          74.00410626871727
        ]
      }
    },
    {
      "type": "Feature",
      "properties": {
        "norad_id": 35793,
        "name": "COSMOS 2251 DEB",
        "group": "cosmos-2251-debris",
        "lat": -67.45881401125702,
        "lon": 0.9513018425393513,
        "alt_km": 641.2930893165167,
        "timestamp": "2025-12-20T16:47:36.681404+00:00",
        "meta_object_name": "COSMOS 2251 DEB",
        "meta_object_id": "1993-036ASP",
        "meta_epoch": "2025-12-20T10:41:54.896064",
        "meta_mean_motion": 14.78845643,
        "meta_eccentricity": 0.0002164,
        "meta_inclination": 74.0407,
        "meta_ra_of_asc_node": 45.0385,
        "meta_arg_of_pericenter": 87.6843,
        "meta_mean_anomaly": 287.023,
        "meta_ephemeris_type": 0,
        "meta_classification_type": "U",
        "meta_norad_cat_id": 35793,
        "meta_element_set_no": 999,
        "meta_rev_at_epoch": 65911,
        "meta_bstar": 0.0010069,
        "meta_mean_motion_dot": 7.388e-05,
        "meta_mean_motion_ddot": 0,
        "tle_line1": "1 35793U 93036ASP 25354.44577426  .00007388  00000+0  10069-2 0  9999",
        "tle_line2": "2 35793  74.0407  45.0385 0002164  87.6843 287.0230 14.78845643659119"
      },
      "geometry": {
        "type": "Point",
        "coordinates": [
          0.9513018425393513,
          -67.45881401125702
        ]
      }
    }
  ]
}